[{"OBJECT_NAME":"STARLINK-34163","OBJECT_ID":"2025-101Q","EPOCH":"2026-03-09T04:03:05.566752","MEAN_MOTION":15.27598639,"ECCENTRICITY":0.00038207,"INCLINATION":43.0016,"RA_OF_ASC_NODE":1.0719,"ARG_OF_PERICENTER":246.0935,"MEAN_ANOMALY":113.9516,"EPHEMERIS_TYPE":0,"CLASSIFICATION_TYPE":"U","NORAD_CAT_ID":64008,"ELEMENT_SET_NO":999,"REV_AT_EPOCH":4697,"BSTAR":0.0016562028,"MEAN_MOTION_DOT":0.00045628,"MEAN_MOTION_DDOT":0},{"OBJECT_NAME":"FENGYUN 1C DEB","OBJECT_ID":"1999-025ETT","EPOCH":"2026-03-07T08:30:03.670560","MEAN_MOTION":15.28888299,"ECCENTRICITY":0.00158464,"INCLINATION":99.1103,"RA_OF_ASC_NODE":112.0072,"ARG_OF_PERICENTER":201.0032,"MEAN_ANOMALY":159.0553,"EPHEMERIS_TYPE":0,"CLASSIFICATION_TYPE":"U","NORAD_CAT_ID":38726,"ELEMENT_SET_NO":999,"REV_AT_EPOCH":71135,"BSTAR":0.013792546,"MEAN_MOTION_DOT":0.00409659,"MEAN_MOTION_DDOT":0}]
